{
  "type": "FeatureCollection",
  "features": [
    {
      "type": "Feature",
      "properties": {
        "norad_id": 66611,
        "name": "STARLINK-35583",
        "group": "last-30-days",
        "lat": 33.06186695970289,
        "lon": 175.35169146538442,
        "alt_km": 439.4825029073754,
        "timestamp": "2025-12-23T07:45:08.114605+00:00",
        "meta_object_name": "STARLINK-35583",
        "meta_object_id": "2025-270Z",
        "meta_epoch": "2025-12-22T22:00:03.000096",
        "meta_mean_motion": 15.40653918,
        "meta_eccentricity": 0.00016805,
        "meta_inclination": 43.0002,
        "meta_ra_of_asc_node": 133.3834,
        "meta_arg_of_pericenter": 281.6746,
        "meta_mean_anomaly": 35.2602,
        "meta_ephemeris_type": 0,
        "meta_classification_type": "U",
        "meta_norad_cat_id": 66611,
        "meta_element_set_no": 999,
        "meta_rev_at_epoch": 598,
        "meta_bstar": 0.0015015887,
        "meta_mean_motion_dot": 0.00062844,
        "meta_mean_motion_ddot": 0,
        "tle_line1": "1 66611U 25270Z   25356.91670139  .00062844  00000+0  15016-2 0  9991",
        "tle_line2": "2 66611  43.0002 133.3834 0001680 281.6746  35.2602 15.40653918  5987"
      },
      "geometry": {
        "type": "Point",
        "coordinates": [
          175.35169146538442,
          33.06186695970289
        ]
      }
    },
    {
      "type": "Feature",
      "properties": {
        "norad_id": 66612,
        "name": "STARLINK-36039",
        "group": "last-30-days",
        "lat": 10.487141722323257,
        "lon": -59.816978684813044,
        "alt_km": 442.86880269133326,
        "timestamp": "2025-12-23T07:45:08.114614+00:00",
        "meta_object_name": "STARLINK-36039",
        "meta_object_id": "2025-270AA",
        "meta_epoch": "2025-12-22T03:02:09.628512",
        "meta_mean_motion": 15.40704556,
        "meta_eccentricity": 0.0001793,
        "meta_inclination": 43.0006,
        "meta_ra_of_asc_node": 138.5371,
        "meta_arg_of_pericenter": 273.4132,
        "meta_mean_anomaly": 86.6519,
        "meta_ephemeris_type": 0,
        "meta_classification_type": "U",
        "meta_norad_cat_id": 66612,
        "meta_element_set_no": 999,
        "meta_rev_at_epoch": 579,
        "meta_bstar": 6.2807293e-05,
        "meta_mean_motion_dot": 2.321e-05,
        "meta_mean_motion_ddot": 0,
        "tle_line1": "1 66612U 25270AA  25356.12650033  .00002321  00000+0  62807-4 0  9992",
        "tle_line2": "2 66612  43.0006 138.5371 0001793 273.4132  86.6519 15.40704556  5799"
      },
      "geometry": {
        "type": "Point",
        "coordinates": [
          -59.816978684813044,
          10.487141722323257
        ]
      }
    },
    {
      "type": "Feature",
      "properties": {
        "norad_id": 66613,
        "name": "STARLINK-36037",
        "group": "last-30-days",
        "lat": -6.41737192632822,
        "lon": -41.48579914620671,
        "alt_km": 444.3639942267582,
        "timestamp": "2025-12-23T07:45:08.114624+00:00",
        "meta_object_name": "STARLINK-36037",
        "meta_object_id": "2025-270AB",
        "meta_epoch": "2025-12-22T18:29:14.610336",
        "meta_mean_motion": 15.40706924,
        "meta_eccentricity": 0.00016378,
        "meta_inclination": 43.0003,
        "meta_ra_of_asc_node": 134.7677,
        "meta_arg_of_pericenter": 274.7104,
        "meta_mean_anomaly": 85.3565,
        "meta_ephemeris_type": 0,
        "meta_classification_type": "U",
        "meta_norad_cat_id": 66613,
        "meta_element_set_no": 999,
        "meta_rev_at_epoch": 589,
        "meta_bstar": 0.001512226,
        "meta_mean_motion_dot": 0.00063408,
        "meta_mean_motion_ddot": 0,
        "tle_line1": "1 66613U 25270AB  25356.77030799  .00063408  00000+0  15122-2 0  9994",
        "tle_line2": "2 66613  43.0003 134.7677 0001637 274.7104  85.3565 15.40706924  5893"
      },
      "geometry": {
        "type": "Point",
        "coordinates": [
          -41.48579914620671,
          -6.41737192632822
        ]
      }
    },
    {
      "type": "Feature",
      "properties": {
        "norad_id": 66614,
        "name": "STARLINK-36040",
        "group": "last-30-days",
        "lat": -35.644437121644124,
        "lon": 81.00609000369434,
        "alt_km": 445.8751869858488,
        "timestamp": "2025-12-23T07:45:08.114636+00:00",
        "meta_object_name": "STARLINK-36040",
        "meta_object_id": "2025-270AC",
        "meta_epoch": "2025-12-22T19:33:33.532416",
        "meta_mean_motion": 15.40700005,
        "meta_eccentricity": 0.00017915,
        "meta_inclination": 43.0038,
        "meta_ra_of_asc_node": 134.2382,
        "meta_arg_of_pericenter": 268.7631,
        "meta_mean_anomaly": 91.302,
        "meta_ephemeris_type": 0,
        "meta_classification_type": "U",
        "meta_norad_cat_id": 66614,
        "meta_element_set_no": 999,
        "meta_rev_at_epoch": 574,
        "meta_bstar": 0.0011223894,
        "meta_mean_motion_dot": 0.0004687,
        "meta_mean_motion_ddot": 0,
        "tle_line1": "1 66614U 25270AC  25356.81497144  .00046870  00000+0  11224-2 0  9994",
        "tle_line2": "2 66614  43.0038 134.2382 0001791 268.7631  91.3020 15.40700005  5740"
      },
      "geometry": {
        "type": "Point",
        "coordinates": [
          81.00609000369434,
          -35.644437121644124
        ]
      }
    },
    {
      "type": "Feature",
      "properties": {
        "norad_id": 66615,
        "name": "STARLINK-35988",
        "group": "last-30-days",
        "lat": -29.77536664664068,
        "lon": -10.627240942809154,
        "alt_km": 446.06911804815445,
        "timestamp": "2025-12-23T07:45:08.114646+00:00",
        "meta_object_name": "STARLINK-35988",
        "meta_object_id": "2025-270AD",
        "meta_epoch": "2025-12-22T18:19:33.981600",
        "meta_mean_motion": 15.40722173,
        "meta_eccentricity": 9.453e-05,
        "meta_inclination": 42.9966,
        "meta_ra_of_asc_node": 134.7149,
        "meta_arg_of_pericenter": 267.1486,
        "meta_mean_anomaly": 92.9263,
        "meta_ephemeris_type": 0,
        "meta_classification_type": "U",
        "meta_norad_cat_id": 66615,
        "meta_element_set_no": 999,
        "meta_rev_at_epoch": 573,
        "meta_bstar": 0.00099727967,
        "meta_mean_motion_dot": 0.00041613,
        "meta_mean_motion_ddot": 0,
        "tle_line1": "1 66615U 25270AD  25356.76358775  .00041613  00000+0  99728-3 0  9991",
        "tle_line2": "2 66615  42.9966 134.7149 0000945 267.1486  92.9263 15.40722173  5731"
      },
      "geometry": {
        "type": "Point",
        "coordinates": [
          -10.627240942809154,
          -29.77536664664068
        ]
      }
    },
    {
      "type": "Feature",
      "properties": {
        "norad_id": 66616,
        "name": "STARLINK-35391",
        "group": "last-30-days",
        "lat": -22.424080805771162,
        "lon": 104.9615820413856,
        "alt_km": 445.41064960229505,
        "timestamp": "2025-12-23T07:45:08.114657+00:00",
        "meta_object_name": "STARLINK-35391",
        "meta_object_id": "2025-270AE",
        "meta_epoch": "2025-12-22T00:00:00.999648",
        "meta_mean_motion": 15.40663019,
        "meta_eccentricity": 0.00012463,
        "meta_inclination": 43.0002,
        "meta_ra_of_asc_node": 138.8723,
        "meta_arg_of_pericenter": 281.4949,
        "meta_mean_anomaly": 257.7879,
        "meta_ephemeris_type": 0,
        "meta_classification_type": "U",
        "meta_norad_cat_id": 66616,
        "meta_element_set_no": 999,
        "meta_rev_at_epoch": 599,
        "meta_bstar": 0.00066447709,
        "meta_mean_motion_dot": 0.00027519,
        "meta_mean_motion_ddot": 0,
        "tle_line1": "1 66616U 25270AE  25356.00001157  .00027519  00000+0  66448-3 0  9990",
        "tle_line2": "2 66616  43.0002 138.8723 0001246 281.4949 257.7879 15.40663019  5991"
      },
      "geometry": {
        "type": "Point",
        "coordinates": [
          104.9615820413856,
          -22.424080805771162
        ]
      }
    },
    {
      "type": "Feature",
      "properties": {
        "norad_id": 66617,
        "name": "STARLINK-35940",
        "group": "last-30-days",
        "lat": 2.610916771201351,
        "lon": -44.74408879798013,
        "alt_km": 448.7555743714074,
        "timestamp": "2025-12-23T07:45:08.114667+00:00",
        "meta_object_name": "STARLINK-35940",
        "meta_object_id": "2025-271A",
        "meta_epoch": "2025-12-22T20:04:58.654272",
        "meta_mean_motion": 15.39621555,
        "meta_eccentricity": 0.0001951,
        "meta_inclination": 53.1592,
        "meta_ra_of_asc_node": 139.507,
        "meta_arg_of_pericenter": 26.2753,
        "meta_mean_anomaly": 333.835,
        "meta_ephemeris_type": 0,
        "meta_classification_type": "U",
        "meta_norad_cat_id": 66617,
        "meta_element_set_no": 999,
        "meta_rev_at_epoch": 576,
        "meta_bstar": 0.0014579177,
        "meta_mean_motion_dot": 0.00058368,
        "meta_mean_motion_ddot": 0,
        "tle_line1": "1 66617U 25271A   25356.83678998  .00058368  00000+0  14579-2 0  9999",
        "tle_line2": "2 66617  53.1592 139.5070 0001951  26.2753 333.8350 15.39621555  5764"
      },
      "geometry": {
        "type": "Point",
        "coordinates": [
          -44.74408879798013,
          2.610916771201351
        ]
      }
    }
  ]
}